{"type": "FeatureCollection", "features": [ {"type": "Feature", "properties": {"norad_id": 66911, "name": "1998-067XX", "group": "stations", "lat": -48.198047361286676, "lon": -39.78309648628168, "alt_km": 408.1242360498318, "timestamp": "2025-12-25T16:53:13.407883+00:00", "meta": {"OBJECT_NAME": "1998-067XX", "OBJECT_ID": "1998-067XX", "EPOCH": "2025-12-24T22:49:37.455744", "MEAN_MOTION": 15.53703475, "ECCENTRICITY": 0.00035293, "INCLINATION": 51.6305, "RA_OF_ASC_NODE": 81.585, "ARG_OF_PERICENTER": 283.5602, "MEAN_ANOMALY": 76.4995, "EPHEMERIS_TYPE": 0, "CLASSIFICATION_TYPE": "U", "NORAD_CAT_ID": 66911, "ELEMENT_SET_NO": 999, "REV_AT_EPOCH": 350, "BSTAR": 0.0011925494, "MEAN_MOTION_DOT": 0.00078033, "MEAN_MOTION_DDOT": 0}, "tle": {"line1": "1 66911U 98067XX  25358.95112796  .00078033  00000+0  11925-2 0  9996", "line2": "2 66911  51.6305  81.5850 0003529 283.5602  76.4995 15.53703475  3505"}}, "geometry": {"type": "Point", "coordinates": [-39.78309648628168, -48.198047361286676]}}, {"type": "Feature", "properties": {"norad_id": 66912, "name": "1998-067XY", "group": "stations", "lat": 2.453400138259517, "lon": -103.95391936201302, "alt_km": 411.4494520919143, "timestamp": "2025-12-25T16:53:13.407894+00:00", "meta": {"OBJECT_NAME": "1998-067XY", "OBJECT_ID": "1998-067XY", "EPOCH": "2025-12-25T05:18:48.744000", "MEAN_MOTION": 15.52348997, "ECCENTRICITY": 0.00038732, "INCLINATION": 51.632, "RA_OF_ASC_NODE": 80.3904, "ARG_OF_PERICENTER": 295.0134, "MEAN_ANOMALY": 65.0453, "EPHEMERIS_TYPE": 0, "CLASSIFICATION_TYPE": "U", "NORAD_CAT_ID": 66912, "ELEMENT_SET_NO": 999, "REV_AT_EPOCH": 354, "BSTAR": 0.00084033216, "MEAN_MOTION_DOT": 0.00052036, "MEAN_MOTION_DDOT": 0}, "tle": {"line1": "1 66912U 98067XY  25359.22139750  .00052036  00000+0  84033-3 0  9993", "line2": "2 66912  51.6320  80.3904 0003873 295.0134  65.0453 15.52348997  3540"}}, "geometry": {"type": "Point", "coordinates": [-103.95391936201302, 2.453400138259517]}}]}